OBJECT_NAME,OBJECT_ID,EPOCH,MEAN_MOTION,ECCENTRICITY,INCLINATION,RA_OF_ASC_NODE,ARG_OF_PERICENTER,MEAN_ANOMALY,EPHEMERIS_TYPE,CLASSIFICATION_TYPE,NORAD_CAT_ID,ELEMENT_SET_NO,REV_AT_EPOCH,BSTAR,MEAN_MOTION_DOT,MEAN_MOTION_DDOT
COSMOS 1536,1984-013A,2025-06-07T16:59:55.043808,15.19761252,.0016336,82.5477,20.1966,158.8330,201.3585,0,U,14699,999,23080,.20279E-3,.4383E-4,0
SL-14 R/B,1984-027B,2025-06-08T04:37:21.819360,14.85639492,.0018661,82.5407,142.3755,157.7190,202.4842,0,U,14820,999,22798,.44476E-4,.411E-5,0
SL-8 R/B,1985-006B,2025-06-08T03:46:59.573280,14.37593744,.0017855,74.0469,46.2135,26.1883,89.4758,0,U,15483,999,11484,.72177E-4,.191E-5,0
SL-12 R/B(2),1985-042D,2025-06-07T17:01:03.715392,14.21886423,.0035837,71.1084,308.6263,196.8519,257.0678,0,U,15772,999,7530,.33684E-4,.27E-6,0
SL-14 R/B,1985-069B,2025-06-08T04:37:36.754464,14.86089227,.001955,82.5266,282.9703,25.9325,334.2867,0,U,15945,999,15316,.4704E-4,.438E-5,0
SL-16 R/B,1985-097B,2025-06-08T00:37:05.181888,14.16553915,.000921,71.0037,358.7747,305.6132,165.5817,0,U,16182,999,4864,.68804E-4,.89E-6,0
SL-14 R/B,1986-006B,2025-06-08T02:17:34.949760,14.86350962,.0078799,82.5260,158.0316,102.5573,258.4472,0,U,16496,999,12949,.60764E-4,.595E-5,0
COSMOS 1743,1986-034A,2025-06-07T23:00:30.733920,15.42853493,.0006209,82.5396,357.9732,193.2967,166.8118,0,U,16719,999,13771,.30949E-3,.13619E-3,0
SL-14 R/B,1986-046B,2025-06-08T02:24:51.964416,14.85253057,.0024615,82.4815,339.5013,57.4458,302.9131,0,U,16792,999,10676,.50188E-4,.457E-5,0
SL-14 R/B,1986-055B,2025-06-07T21:25:22.291968,14.85295050,.0019612,82.5214,24.8759,156.7267,214.0503,0,U,16882,999,7857,.41998E-4,.386E-5,0
AJISAI (EGS),1986-061A,2025-06-08T05:17:48.046272,12.44512426,.0011249,50.0074,217.3323,308.1190,97.4747,0,U,16908,999,43417,.17911E-3,-.72E-6,0
COSMOS 1812,1987-003A,2025-06-07T21:25:31.895328,15.54291446,.0004682,82.4963,131.1550,80.4247,279.7536,0,U,17295,999,10160,.3964E-3,.25982E-3,0
SL-14 R/B,1987-024B,2025-06-08T00:45:15.399936,14.85791276,.0019985,82.5280,350.7728,90.1090,270.2416,0,U,17567,999,6849,.45157E-4,.418E-5,0
COSMOS 1833,1987-027A,2025-06-08T02:55:25.249728,14.13009898,.0026096,70.9138,183.1394,254.7369,105.0866,0,U,17589,999,97175,-.48382E-4,-.139E-5,0
SL-16 R/B,1987-027B,2025-06-08T02:44:20.892480,14.17119922,.0005606,71.0014,135.0668,203.9110,156.1754,0,U,17590,999,97671,.13644E-3,.227E-5,0
SL-14 R/B,1987-038B,2025-06-08T03:43:36.804576,14.85035980,.0019194,82.5013,195.3184,356.6229,3.4853,0,U,17912,999,5956,.3958E-4,.363E-5,0
COSMOS 1844,1987-041A,2025-06-08T00:28:26.698080,14.14470644,.0028941,70.8987,253.4863,74.1983,286.2326,0,U,17973,999,96494,.1566E-3,.253E-5,0
SL-14 R/B,1987-055B,2025-06-07T20:14:15.902304,14.85293498,.0020292,82.4999,248.0108,198.2395,161.8096,0,U,18153,999,5022,.43622E-4,.4E-5,0
COSMOS 1867,1987-060A,2025-06-07T22:47:41.341056,14.31450688,.0016014,65.0116,356.0737,258.2871,101.6417,0,U,18187,999,98083,.25616E-4,-.32E-6,0
COSMOS 1892,1987-088A,2025-06-07T18:34:21.494496,15.64006612,.0006776,82.4821,248.7164,155.6647,204.4933,0,U,18421,999,6164,.46239E-3,.43817E-3,0
SL-14 R/B,1988-001B,2025-06-07T16:27:28.432800,14.85195075,.0019702,82.5133,93.9994,69.4986,290.8342,0,U,18749,999,120,.49861E-4,.453E-5,0
COSMOS 1933,1988-020A,2025-06-08T02:37:43.480992,15.15309092,.0006154,82.5123,161.9373,79.6542,280.5384,0,U,18958,999,2982,.1302E-3,.2482E-4,0
SL-3 R/B,1988-032B,2025-06-07T22:10:09.544512,15.16489456,.0029799,97.4860,139.5559,108.4895,251.9580,0,U,19046,999,1070,.16433E-3,.3167E-4,0
SL-16 R/B,1988-039B,2025-06-08T02:23:12.507648,14.19563093,.0020463,71.0151,289.1367,36.5854,323.6664,0,U,19120,999,91968,.66193E-4,.92E-6,0
COSMOS 1953,1988-050A,2025-06-08T05:10:33.060288,15.23965152,.0013225,82.5111,73.2968,19.4742,340.6998,0,U,19210,999,1706,.28141E-3,.6855E-4,0
SL-8 R/B,1988-053B,2025-06-07T16:13:16.485600,14.38723781,.0019515,74.0476,259.2832,150.5501,320.0405,0,U,19257,999,93704,.69607E-4,.188E-5,0
COSMOS 1975,1988-093A,2025-06-08T02:44:29.163552,15.22984857,.0014571,82.5238,32.0770,62.1447,298.1263,0,U,19573,999,99872,.22576E-3,.5352E-4,0
SL-14 R/B,1988-093B,2025-06-07T21:51:49.006368,14.85323520,.0019725,82.5305,299.8899,224.3252,252.8671,0,U,19574,999,96024,.46765E-4,.427E-5,0
SL-16 R/B,1988-102B,2025-06-08T01:25:34.928256,14.16102864,.0012291,71.0000,9.3207,65.6658,294.5747,0,U,19650,999,88829,.92676E-4,.136E-5,0
INTERCOSMOS 24,1989-080A,2025-06-08T03:31:40.063008,12.59017976,.1189856,82.6054,282.9243,209.5905,143.2477,0,U,20261,999,63183,.28328E-3,.963E-5,0
SL-14 R/B,1989-080C,2025-06-08T00:33:00.024480,12.50302189,.123182,82.5941,349.5565,92.5361,281.6978,0,U,20262,999,62540,.10899E-3,.394E-5,0
