COSMOS 1536             
1 14699U 84013A   25158.70827597  .00004383  00000+0  20279-3 0  9991
2 14699  82.5477  20.1966 0016336 158.8330 201.3585 15.19761252230801
SL-14 R/B               
1 14820U 84027B   25159.19261365  .00000411  00000+0  44476-4 0  9995
2 14820  82.5407 142.3755 0018661 157.7190 202.4842 14.85639492227983
SL-8 R/B                
1 15483U 85006B   25159.15763395  .00000191  00000+0  72177-4 0  9999
2 15483  74.0469  46.2135 0017855  26.1883  89.4758 14.37593744114844
SL-12 R/B(2)            
1 15772U 85042D   25158.70907078  .00000027  00000+0  33684-4 0  9996
2 15772  71.1084 308.6263 0035837 196.8519 257.0678 14.21886423 75307
SL-14 R/B               
1 15945U 85069B   25159.19278651  .00000438  00000+0  47040-4 0  9996
2 15945  82.5266 282.9703 0019550  25.9325 334.2867 14.86089227153168
SL-16 R/B               
1 16182U 85097B   25159.02575442  .00000089  00000+0  68804-4 0  9994
2 16182  71.0037 358.7747 0009210 305.6132 165.5817 14.16553915 48646
SL-14 R/B               
1 16496U 86006B   25159.09554340  .00000595  00000+0  60764-4 0  9993
2 16496  82.5260 158.0316 0078799 102.5573 258.4472 14.86350962129499
COSMOS 1743             
1 16719U 86034A   25158.95868905  .00013619  00000+0  30949-3 0  9993
2 16719  82.5396 357.9732 0006209 193.2967 166.8118 15.42853493137713
SL-14 R/B               
1 16792U 86046B   25159.10060144  .00000457  00000+0  50188-4 0  9998
2 16792  82.4815 339.5013 0024615  57.4458 302.9131 14.85253057106769
SL-14 R/B               
1 16882U 86055B   25158.89261912  .00000386  00000+0  41998-4 0  9999
2 16882  82.5214  24.8759 0019612 156.7267 214.0503 14.85295050 78578
AJISAI (EGS)            
1 16908U 86061A   25159.22069498 -.00000072  00000+0  17911-3 0  9998
2 16908  50.0074 217.3323 0011249 308.1190  97.4747 12.44512426434170
COSMOS 1812             
1 17295U 87003A   25158.89273027  .00025982  00000+0  39640-3 0  9991
2 17295  82.4963 131.1550 0004682  80.4247 279.7536 15.54291446101607
SL-14 R/B               
1 17567U 87024B   25159.03142824  .00000418  00000+0  45157-4 0  9991
2 17567  82.5280 350.7728 0019985  90.1090 270.2416 14.85791276 68495
COSMOS 1833             
1 17589U 87027A   25159.12182002 -.00000139  00000+0 -48382-4 0  9995
2 17589  70.9138 183.1394 0026096 254.7369 105.0866 14.13009898971756
SL-16 R/B               
1 17590U 87027B   25159.11413070  .00000227  00000+0  13644-3 0  9996
2 17590  71.0014 135.0668 0005606 203.9110 156.1754 14.17119922976715
SL-14 R/B               
1 17912U 87038B   25159.15528709  .00000363  00000+0  39580-4 0  9995
2 17912  82.5013 195.3184 0019194 356.6229   3.4853 14.85035980 59560
COSMOS 1844             
1 17973U 87041A   25159.01975345  .00000253  00000+0  15660-3 0  9993
2 17973  70.8987 253.4863 0028941  74.1983 286.2326 14.14470644964941
SL-14 R/B               
1 18153U 87055B   25158.84323961  .00000400  00000+0  43622-4 0  9994
2 18153  82.4999 248.0108 0020292 198.2395 161.8096 14.85293498 50229
COSMOS 1867             
1 18187U 87060A   25158.94978404 -.00000032  00000+0  25616-4 0  9991
2 18187  65.0116 356.0737 0016014 258.2871 101.6417 14.31450688980830
COSMOS 1892             
1 18421U 87088A   25158.77385989  .00043817  00000+0  46239-3 0  9993
2 18421  82.4821 248.7164 0006776 155.6647 204.4933 15.64006612 61648
SL-14 R/B               
1 18749U 88001B   25158.68574575  .00000453  00000+0  49861-4 0  9997
2 18749  82.5133  93.9994 0019702  69.4986 290.8342 14.85195075  1203
COSMOS 1933             
1 18958U 88020A   25159.10953103  .00002482  00000+0  13020-3 0  9997
2 18958  82.5123 161.9373 0006154  79.6542 280.5384 15.15309092 29829
SL-3 R/B                
1 19046U 88032B   25158.92372158  .00003167  00000+0  16433-3 0  9995
2 19046  97.4860 139.5559 0029799 108.4895 251.9580 15.16489456 10701
SL-16 R/B               
1 19120U 88039B   25159.09945032  .00000092  00000+0  66193-4 0  9994
2 19120  71.0151 289.1367 0020463  36.5854 323.6664 14.19563093919686
COSMOS 1953             
1 19210U 88050A   25159.21566042  .00006855  00000+0  28141-3 0  9994
2 19210  82.5111  73.2968 0013225  19.4742 340.6998 15.23965152 17060
SL-8 R/B                
1 19257U 88053B   25158.67588525  .00000188  00000+0  69607-4 0  9993
2 19257  74.0476 259.2832 0019515 150.5501 320.0405 14.38723781937044
COSMOS 1975             
1 19573U 88093A   25159.11422643  .00005352  00000+0  22576-3 0  9997
2 19573  82.5238  32.0770 0014571  62.1447 298.1263 15.22984857998723
SL-14 R/B               
1 19574U 88093B   25158.91098387  .00000427  00000+0  46765-4 0  9994
2 19574  82.5305 299.8899 0019725 224.3252 252.8671 14.85323520960244
SL-16 R/B               
1 19650U 88102B   25159.05943204  .00000136  00000+0  92676-4 0  9992
2 19650  71.0000   9.3207 0012291  65.6658 294.5747 14.16102864888299
INTERCOSMOS 24          
1 20261U 89080A   25159.14699147  .00000963  00000+0  28328-3 0  9992
2 20261  82.6054 282.9243 1189856 209.5905 143.2477 12.59017976631832
SL-14 R/B               
1 20262U 89080C   25159.02291695  .00000394  00000+0  10899-3 0  9998
2 20262  82.5941 349.5565 1231820  92.5361 281.6978 12.50302189625402
